STARLINK-36869          
1 67954U 26037Y   26071.91668981  .00037954  00000+0  18215-3 0  9990
2 67954  42.9988 178.5639 0002035 262.6520 144.0177 15.81995529  3714
STARLINK-36872          
1 67955U 26037Z   26071.91668981 -.00021070  00000+0 -97721-4 0  9995
2 67955  42.9988 178.5418 0001921 286.0672 129.1476 15.82025406  3716
STARLINK-36918          
1 67956U 26037AA  26071.91668981  .00033101  00000+0  15932-3 0  9995
2 67956  42.9989 178.5313 0001576 286.5072 132.9823 15.81989517  3716
STARLINK-36829          
1 67957U 26037AB  26071.91668981  .00015008  00000+0  73768-4 0  9994
2 67957  42.9989 178.5536 0001519 283.4658 127.4912 15.81990689  3717
STARLINK-36799          
1 67958U 26037AC  26071.91668981  .00031988  00000+0  15402-3 0  9990
2 67958  42.9986 178.5208 0001592 277.5046 146.2595 15.81996324  3715
STARLINK-36834          
1 67959U 26037AD  26071.91668981  .00054328  00000+0  25926-3 0  9996
2 67959  42.9987 178.4991 0001739 268.3127 163.9943 15.81987402  3716
STARLINK-36841          
1 67960U 26037AE  26071.91668981  .00012646  00000+0  62530-4 0  9998
2 67960  42.9987 178.5097 0001794 253.0672 174.9619 15.82005351  3710
STARLINK-36912          
1 67961U 26038A   26071.91668981  .00128164  00000+0  85163-3 0  9999
2 67961  97.2805  82.3812 0000756 117.4577 280.6262 15.75072439  3716
STARLINK-36881          
1 67962U 26038B   26071.91668981 -.00252053  00000+0 -17266-2 0  9995
2 67962  97.2804  82.3838 0001453 108.4900 295.4788 15.75358068  3711
STARLINK-36357          
1 67963U 26038C   26071.91668981 -.00866006  00000+0 -62598-2 0  9993
2 67963  97.2787  82.3870 0000677 111.5202 304.2311 15.75773553  3716
STARLINK-36349          
1 67964U 26038D   26071.91668981  .00104174  00000+0  69312-3 0  9995
2 67964  97.2793  82.3841 0001796  89.7379 318.3294 15.75112092  3717
STARLINK-36806          
1 67965U 26038E   26071.91668981 -.00659267  00000+0 -46736-2 0  9990
2 67965  97.2786  82.3897 0001041 101.8307 319.9698 15.75659155  3712
STARLINK-36820          
1 67966U 26038F   26071.91668981 -.00946051  00000+0 -68614-2 0  9990
2 67966  97.2791  82.3927 0001469  95.2156 332.4308 15.75908707  3713
STARLINK-36819          
1 67967U 26038G   26071.91668981 -.01208480  00000+0 -87913-2 0  9992
2 67967  97.2781  82.3939 0001546  89.2546 344.3044 15.76064458  3714
STARLINK-36812          
1 67968U 26038H   26071.91668981 -.01554643  00000+0 -11241-1 0  9998
2 67968  97.2780  82.3960 0001288  97.4404 341.7954 15.76477516  3719
STARLINK-36709          
1 67969U 26038J   26071.91668981 -.02136769  00000+0 -14899-1 0  9997
2 67969  97.2776  82.4018 0001722  75.7741  16.6595 15.77264869  3711
