[{"OBJECT_NAME":"STARLINK-36869","OBJECT_ID":"2026-037Y","EPOCH":"2026-03-12T22:00:01.999584","MEAN_MOTION":15.81995529,"ECCENTRICITY":0.00020359,"INCLINATION":42.9988,"RA_OF_ASC_NODE":178.5639,"ARG_OF_PERICENTER":262.652,"MEAN_ANOMALY":144.0177,"EPHEMERIS_TYPE":0,"CLASSIFICATION_TYPE":"U","NORAD_CAT_ID":67954,"ELEMENT_SET_NO":999,"REV_AT_EPOCH":371,"BSTAR":0.0001821497,"MEAN_MOTION_DOT":0.00037954,"MEAN_MOTION_DDOT":0},{"OBJECT_NAME":"STARLINK-36872","OBJECT_ID":"2026-037Z","EPOCH":"2026-03-12T22:00:01.999584","MEAN_MOTION":15.82025406,"ECCENTRICITY":0.00019216,"INCLINATION":42.9988,"RA_OF_ASC_NODE":178.5418,"ARG_OF_PERICENTER":286.0672,"MEAN_ANOMALY":129.1476,"EPHEMERIS_TYPE":0,"CLASSIFICATION_TYPE":"U","NORAD_CAT_ID":67955,"ELEMENT_SET_NO":999,"REV_AT_EPOCH":371,"BSTAR":-9.7721113e-5,"MEAN_MOTION_DOT":-0.0002107,"MEAN_MOTION_DDOT":0},{"OBJECT_NAME":"STARLINK-36918","OBJECT_ID":"2026-037AA","EPOCH":"2026-03-12T22:00:01.999584","MEAN_MOTION":15.81989517,"ECCENTRICITY":0.00015761,"INCLINATION":42.9989,"RA_OF_ASC_NODE":178.5313,"ARG_OF_PERICENTER":286.5072,"MEAN_ANOMALY":132.9823,"EPHEMERIS_TYPE":0,"CLASSIFICATION_TYPE":"U","NORAD_CAT_ID":67956,"ELEMENT_SET_NO":999,"REV_AT_EPOCH":371,"BSTAR":0.00015932214,"MEAN_MOTION_DOT":0.00033101,"MEAN_MOTION_DDOT":0},{"OBJECT_NAME":"STARLINK-36829","OBJECT_ID":"2026-037AB","EPOCH":"2026-03-12T22:00:01.999584","MEAN_MOTION":15.81990689,"ECCENTRICITY":0.00015193,"INCLINATION":42.9989,"RA_OF_ASC_NODE":178.5536,"ARG_OF_PERICENTER":283.4658,"MEAN_ANOMALY":127.4912,"EPHEMERIS_TYPE":0,"CLASSIFICATION_TYPE":"U","NORAD_CAT_ID":67957,"ELEMENT_SET_NO":999,"REV_AT_EPOCH":371,"BSTAR":7.3767553e-5,"MEAN_MOTION_DOT":0.00015008,"MEAN_MOTION_DDOT":0},{"OBJECT_NAME":"STARLINK-36799","OBJECT_ID":"2026-037AC","EPOCH":"2026-03-12T22:00:01.999584","MEAN_MOTION":15.81996324,"ECCENTRICITY":0.00015929,"INCLINATION":42.9986,"RA_OF_ASC_NODE":178.5208,"ARG_OF_PERICENTER":277.5046,"MEAN_ANOMALY":146.2595,"EPHEMERIS_TYPE":0,"CLASSIFICATION_TYPE":"U","NORAD_CAT_ID":67958,"ELEMENT_SET_NO":999,"REV_AT_EPOCH":371,"BSTAR":0.00015402133,"MEAN_MOTION_DOT":0.00031988,"MEAN_MOTION_DDOT":0},{"OBJECT_NAME":"STARLINK-36834","OBJECT_ID":"2026-037AD","EPOCH":"2026-03-12T22:00:01.999584","MEAN_MOTION":15.81987402,"ECCENTRICITY":0.00017396,"INCLINATION":42.9987,"RA_OF_ASC_NODE":178.4991,"ARG_OF_PERICENTER":268.3127,"MEAN_ANOMALY":163.9943,"EPHEMERIS_TYPE":0,"CLASSIFICATION_TYPE":"U","NORAD_CAT_ID":67959,"ELEMENT_SET_NO":999,"REV_AT_EPOCH":371,"BSTAR":0.00025926051,"MEAN_MOTION_DOT":0.00054328,"MEAN_MOTION_DDOT":0},{"OBJECT_NAME":"STARLINK-36841","OBJECT_ID":"2026-037AE","EPOCH":"2026-03-12T22:00:01.999584","MEAN_MOTION":15.82005351,"ECCENTRICITY":0.00017947,"INCLINATION":42.9987,"RA_OF_ASC_NODE":178.5097,"ARG_OF_PERICENTER":253.0672,"MEAN_ANOMALY":174.9619,"EPHEMERIS_TYPE":0,"CLASSIFICATION_TYPE":"U","NORAD_CAT_ID":67960,"ELEMENT_SET_NO":999,"REV_AT_EPOCH":371,"BSTAR":6.2530332e-5,"MEAN_MOTION_DOT":0.00012646,"MEAN_MOTION_DDOT":0},{"OBJECT_NAME":"STARLINK-36912","OBJECT_ID":"2026-038A","EPOCH":"2026-03-12T22:00:01.999584","MEAN_MOTION":15.75072439,"ECCENTRICITY":7.561e-5,"INCLINATION":97.2805,"RA_OF_ASC_NODE":82.3812,"ARG_OF_PERICENTER":117.4577,"MEAN_ANOMALY":280.6262,"EPHEMERIS_TYPE":0,"CLASSIFICATION_TYPE":"U","NORAD_CAT_ID":67961,"ELEMENT_SET_NO":999,"REV_AT_EPOCH":371,"BSTAR":0.00085162508,"MEAN_MOTION_DOT":0.00128164,"MEAN_MOTION_DDOT":0},{"OBJECT_NAME":"STARLINK-36881","OBJECT_ID":"2026-038B","EPOCH":"2026-03-12T22:00:01.999584","MEAN_MOTION":15.75358068,"ECCENTRICITY":0.00014537,"INCLINATION":97.2804,"RA_OF_ASC_NODE":82.3838,"ARG_OF_PERICENTER":108.49,"MEAN_ANOMALY":295.4788,"EPHEMERIS_TYPE":0,"CLASSIFICATION_TYPE":"U","NORAD_CAT_ID":67962,"ELEMENT_SET_NO":999,"REV_AT_EPOCH":371,"BSTAR":-0.0017265716,"MEAN_MOTION_DOT":-0.00252053,"MEAN_MOTION_DDOT":0},{"OBJECT_NAME":"STARLINK-36357","OBJECT_ID":"2026-038C","EPOCH":"2026-03-12T22:00:01.999584","MEAN_MOTION":15.75773553,"ECCENTRICITY":6.774e-5,"INCLINATION":97.2787,"RA_OF_ASC_NODE":82.387,"ARG_OF_PERICENTER":111.5202,"MEAN_ANOMALY":304.2311,"EPHEMERIS_TYPE":0,"CLASSIFICATION_TYPE":"U","NORAD_CAT_ID":67963,"ELEMENT_SET_NO":999,"REV_AT_EPOCH":371,"BSTAR":-0.0062597806,"MEAN_MOTION_DOT":-0.00866006,"MEAN_MOTION_DDOT":0},{"OBJECT_NAME":"STARLINK-36349","OBJECT_ID":"2026-038D","EPOCH":"2026-03-12T22:00:01.999584","MEAN_MOTION":15.75112092,"ECCENTRICITY":0.00017968,"INCLINATION":97.2793,"RA_OF_ASC_NODE":82.3841,"ARG_OF_PERICENTER":89.7379,"MEAN_ANOMALY":318.3294,"EPHEMERIS_TYPE":0,"CLASSIFICATION_TYPE":"U","NORAD_CAT_ID":67964,"ELEMENT_SET_NO":999,"REV_AT_EPOCH":371,"BSTAR":0.00069312249,"MEAN_MOTION_DOT":0.00104174,"MEAN_MOTION_DDOT":0},{"OBJECT_NAME":"STARLINK-36806","OBJECT_ID":"2026-038E","EPOCH":"2026-03-12T22:00:01.999584","MEAN_MOTION":15.75659155,"ECCENTRICITY":0.00010419,"INCLINATION":97.2786,"RA_OF_ASC_NODE":82.3897,"ARG_OF_PERICENTER":101.8307,"MEAN_ANOMALY":319.9698,"EPHEMERIS_TYPE":0,"CLASSIFICATION_TYPE":"U","NORAD_CAT_ID":67965,"ELEMENT_SET_NO":999,"REV_AT_EPOCH":371,"BSTAR":-0.0046736382,"MEAN_MOTION_DOT":-0.00659267,"MEAN_MOTION_DDOT":0},{"OBJECT_NAME":"STARLINK-36820","OBJECT_ID":"2026-038F","EPOCH":"2026-03-12T22:00:01.999584","MEAN_MOTION":15.75908707,"ECCENTRICITY":0.00014698,"INCLINATION":97.2791,"RA_OF_ASC_NODE":82.3927,"ARG_OF_PERICENTER":95.2156,"MEAN_ANOMALY":332.4308,"EPHEMERIS_TYPE":0,"CLASSIFICATION_TYPE":"U","NORAD_CAT_ID":67966,"ELEMENT_SET_NO":999,"REV_AT_EPOCH":371,"BSTAR":-0.0068614112,"MEAN_MOTION_DOT":-0.00946051,"MEAN_MOTION_DDOT":0},{"OBJECT_NAME":"STARLINK-36819","OBJECT_ID":"2026-038G","EPOCH":"2026-03-12T22:00:01.999584","MEAN_MOTION":15.76064458,"ECCENTRICITY":0.00015461,"INCLINATION":97.2781,"RA_OF_ASC_NODE":82.3939,"ARG_OF_PERICENTER":89.2546,"MEAN_ANOMALY":344.3044,"EPHEMERIS_TYPE":0,"CLASSIFICATION_TYPE":"U","NORAD_CAT_ID":67967,"ELEMENT_SET_NO":999,"REV_AT_EPOCH":371,"BSTAR":-0.0087912603,"MEAN_MOTION_DOT":-0.0120848,"MEAN_MOTION_DDOT":0},{"OBJECT_NAME":"STARLINK-36812","OBJECT_ID":"2026-038H","EPOCH":"2026-03-12T22:00:01.999584","MEAN_MOTION":15.76477516,"ECCENTRICITY":0.00012882,"INCLINATION":97.278,"RA_OF_ASC_NODE":82.396,"ARG_OF_PERICENTER":97.4404,"MEAN_ANOMALY":341.7954,"EPHEMERIS_TYPE":0,"CLASSIFICATION_TYPE":"U","NORAD_CAT_ID":67968,"ELEMENT_SET_NO":999,"REV_AT_EPOCH":371,"BSTAR":-0.01124078,"MEAN_MOTION_DOT":-0.01554643,"MEAN_MOTION_DDOT":0},{"OBJECT_NAME":"STARLINK-36709","OBJECT_ID":"2026-038J","EPOCH":"2026-03-12T22:00:01.999584","MEAN_MOTION":15.77264869,"ECCENTRICITY":0.00017223,"INCLINATION":97.2776,"RA_OF_ASC_NODE":82.4018,"ARG_OF_PERICENTER":75.7741,"MEAN_ANOMALY":16.6595,"EPHEMERIS_TYPE":0,"CLASSIFICATION_TYPE":"U","NORAD_CAT_ID":67969,"ELEMENT_SET_NO":999,"REV_AT_EPOCH":371,"BSTAR":-0.014899425,"MEAN_MOTION_DOT":-0.02136769,"MEAN_MOTION_DDOT":0}]
